METEOSAT-9 (MSG-2)      
1 28912U 05049B   26167.76518994  .00000116  00000+0  00000+0 0  9997
2 28912   9.3608  54.1728 0001615 343.7501 188.2137  1.00271877  6990
METOP-B                 
1 38771U 12049A   26168.18962497  .00000089  00000+0  60599-4 0  9990
2 38771  98.6505 219.6888 0002239  19.7345 340.3919 14.21432760713266
METEOSAT-11 (MSG-4)     
1 40732U 15034A   26167.75807976  .00000061  00000+0  00000+0 0  9995
2 40732   3.2002  71.1126 0001751  11.1942 105.2805  1.00280240  7213
METOP-C                 
1 43689U 18087A   26168.13843457  .00000090  00000+0  60753-4 0  9995
2 43689  98.6645 227.7429 0001764 129.4848 230.6485 14.21512138394829
NEMO-HD                 
1 46277U 20061F   26168.19454672  .00009059  00000+0  19665-3 0  9998
2 46277  97.1917 230.1473 0002277  81.4002 278.7505 15.44594372321986
METEOSAT-12 (MTG-I1)    
1 54743U 22170C   26167.68479600 -.00000011  00000+0  00000+0 0  9998
2 54743   0.7378  22.8954 0003149  71.4225  56.7455  1.00272481 12974
MTG-S1                  
1 64723U 25143A   26167.75525036 -.00000034  00000+0  00000+0 0  9998
2 64723   0.6036 338.8844 0000992  11.8800 182.6770  1.00272107  3414
MICROCARB               
1 64899U 25156A   26168.08178723  .00000409  00000+0  72460-4 0  9999
2 64899  97.9832 245.2210 0014954 272.6079  87.3416 14.72325374 47950
NISAR                   
1 65053U 25163A   26168.16502543  .00000246  00000+0  87270-4 0  9994
2 65053  98.4054 355.8302 0001221  89.2179 270.9151 14.42506497 46387
METOP-SGA1              
1 65159U 25172A   26167.15332899  .00000049  00000+0  42000-4 0  9997
2 65159  98.6644 226.8998 0000902  93.8213 266.3067 14.21509720 43644
